              M50 Cartesian                         J2K Cartesian  
    -----------------------------------       --------------------------------
     X    =      -18244998.74                 X    =        -5558425.67
     Y    =        4528793.76  feet           Y    =         1318203.48  meter
     Z    =      -11935847.09                 Z    =        -3665054.51
     XDOT =       4323.032168                 XDOT =        1407.632904
     YDOT =     -20216.344037  feet/sec       YDOT =       -6146.703674  meter/sec
     ZDOT =     -14295.629279                 ZDOT =       -4350.688258
 
              TDR Cartesian                         TDR Cartesian  
    -----------------------------------       --------------------------------
     X    =      -17170375.36                 X    =        -5233530.41
     Y    =        7466471.42  feet           Y    =         2275780.49  meter
     Z    =      -12053398.36                 Z    =        -3673875.82
     XDOT =       1559.168663                 XDOT =         475.234608
     YDOT =     -19417.101031  feet/sec       YDOT =       -5918.332394  meter/sec
     ZDOT =     -14265.671128                 ZDOT =       -4348.176560
  
  
    The mean element set is posted at the UTC for which position is
    just north of the next ascending node relative to the above
    vector time
 
 
    TWO LINE MEAN ELEMENT SET
  
    ISS
    1 25544U 98067A   16117.45634567  .00016717  00000-0  10270-3 0  9014
    2 25544  51.6424 316.0818 0001684  53.2116 306.9191 15.54325088 36939
  
  
    Satellite: ISS
    Catalog Number: 25544
    Epoch time:      16117.45634567   =   yrday.fracday
    Element set:     901
    Inclination:       51.6424  deg
    RA of node:       316.0818  deg
    Eccentricity:     .0001684     
    Arg of perigee:    53.2116  deg
    Mean anomaly:     306.9191  deg
    Mean motion:   15.54325088  rev/day
    Decay rate:    1.67170E-04  rev/day^2
    Epoch rev:            3693
    Checksum:              307
 
 
    Coasting Arc #3 (Orbit 3708)
    ---------------------------------------
 
    Vector Time (GMT): 2016/118/10:22:01.355
    Vector Time (MET): N/A
    Weight (LBS)     : 945238.6
 
              M50 Cartesian                         M50 Keplerian  
    -----------------------------------       --------------------------------
     X    =        4883132.02                 A    =         6779287.59  meter
     Y    =          71035.00  meter          E    =           .0008824
     Z    =        4695811.29                 I    =           51.35375
     XDOT =      -2755.640598                 Wp   =          106.84755
     YDOT =       6608.081553  meter/sec      RA   =          310.58207  deg
     ZDOT =       2758.786076                 TA   =          315.70622
                                              MA   =          315.77680
                                              Ha   =            221.147  n.mi
                                              Hp   =            213.794
 
              M50 Cartesian                         J2K Cartesian  
    -----------------------------------       --------------------------------
     X    =       16020774.35                 X    =         4859164.24
     Y    =         233054.46  feet           Y    =          125507.43  meter
     Z    =       15406205.03                 Z    =         4719474.42
     XDOT =      -9040.815609                 XDOT =       -2842.730177
     YDOT =      21680.057587  feet/sec       YDOT =        6576.779206  meter/sec
     ZDOT =       9051.135419                 ZDOT =        2745.188142
 
              TDR Cartesian                         TDR Cartesian  
    -----------------------------------       --------------------------------
     X    =       15697753.27                 X    =         4784675.20
     Y    =       -2669058.87  feet           Y    =         -813529.14  meter
     Z    =       15508944.04                 Z    =         4727126.14
     XDOT =      -5192.775245                 XDOT =       -1582.757895
     YDOT =      21830.690251  feet/sec       YDOT =        6653.994388  meter/sec
     ZDOT =       8990.793753                 ZDOT =        2740.393936
  
  
    The mean element set is posted at the UTC for which position is
    just north of the next ascending node relative to the above
    vector time
 
 
    TWO LINE MEAN ELEMENT SET
  
    ISS
    1 25544U 98067A   16118.48504141  .00016717  00000-0  10270-3 0  9023
    2 25544  51.6425 310.9526 0001811  57.7714 302.3614 15.54316651 37098
  
  
    Satellite: ISS
    Catalog Number: 25544
    Epoch time:      16118.48504141   =   yrday.fracday
    Element set:     902
    Inclination:       51.6425  deg
    RA of node:       310.9526  deg
    Eccentricity:     .0001811     
    Arg of perigee:    57.7714  deg
    Mean anomaly:     302.3614  deg
    Mean motion:   15.54316651  rev/day
    Decay rate:    1.67170E-04  rev/day^2
    Epoch rev:            3709
    Checksum:              285
 
 
    Coasting Arc #4 (Orbit 3723)
    ---------------------------------------
 
    Vector Time (GMT): 2016/119/10:22:01.355
    Vector Time (MET): N/A
    Weight (LBS)     : 945238.6
 
              M50 Cartesian                         M50 Keplerian  
    -----------------------------------       --------------------------------
     X    =       -3966456.68                 A    =         6776889.32  meter
     Y    =       -1674182.85  meter          E    =           .0016066
     Z    =       -5247687.38                 I    =           51.32547
     XDOT =       3867.991285                 Wp   =           80.95769
     YDOT =      -6555.577769  meter/sec      RA   =          305.56049  deg
     ZDOT =       -831.883407                 TA   =          181.04133
                                              MA   =          181.04468
                                              Ha   =            221.170  n.mi
                                              Hp   =            213.615
 
              M50 Cartesian                         J2K Cartesian  
    -----------------------------------       --------------------------------
     X    =      -13013309.32                 X    =        -3921949.49
     Y    =       -5492725.89  feet           Y    =        -1718289.57  meter
     Z    =      -17216822.10                 Z    =        -5266847.52
     XDOT =      12690.260122                 XDOT =        3945.050886
     YDOT =     -21507.801079  feet/sec       YDOT =       -6511.892454  meter/sec
     ZDOT =      -2729.276271                 ZDOT =        -812.906294
 
              TDR Cartesian                         TDR Cartesian  
    -----------------------------------       --------------------------------
     X    =      -13737598.54                 X    =        -4187220.03
     Y    =       -2816758.67  feet           Y    =         -858548.04  meter
     Z    =      -17299695.87                 Z    =        -5272947.30
     XDOT =       7967.705094                 XDOT =        2428.556513
     YDOT =     -22604.981500  feet/sec       YDOT =       -6889.998361  meter/sec
     ZDOT =      -2645.595406                 ZDOT =        -806.377480
  
  
    The mean element set is posted at the UTC for which position is
    just north of the next ascending node relative to the above
    vector time
 
 
    TWO LINE MEAN ELEMENT SET
  
    ISS
    1 25544U 98067A   16119.44943624  .00016717  00000-0  10270-3 0  9034
    2 25544  51.6420 306.1424 0001668  58.6885 301.4431 15.54363556 37246
  
  
    Satellite: ISS
    Catalog Number: 25544
    Epoch time:      16119.44943624   =   yrday.fracday
    Element set:     903
    Inclination:       51.6420  deg
    RA of node:       306.1424  deg
    Eccentricity:     .0001668     
    Arg of perigee:    58.6885  deg
    Mean anomaly:     301.4431  deg
    Mean motion:   15.54363556  rev/day
    Decay rate:    1.67170E-04  rev/day^2
    Epoch rev:            3724
    Checksum:              304
 
 
    Coasting Arc #5 (Orbit 3739)
    ---------------------------------------
 
    Vector Time (GMT): 2016/120/10:22:01.355
    Vector Time (MET): N/A
    Weight (LBS)     : 945238.6
 
              M50 Cartesian                         M50 Keplerian  
    -----------------------------------       --------------------------------
     X    =        2891231.44                 A    =         6777181.31  meter
     Y    =        3267660.25  meter          E    =           .0005748
     Z    =        5182193.55                 I    =           51.30839
     XDOT =      -4639.641683                 Wp   =           57.83885
     YDOT =       5994.053329  meter/sec      RA   =          300.53579  deg
     ZDOT =      -1187.074704                 TA   =           43.61729
                                              MA   =           43.57186
                                              Ha   =            221.117  n.mi
                                              Hp   =            213.751
 
              M50 Cartesian                         J2K Cartesian  
    -----------------------------------       --------------------------------
     X    =        9485667.45                 X    =         2829303.70
     Y    =       10720670.11  feet           Y    =         3299645.71  meter
     Z    =       17001947.35                 Z    =         5196088.10
     XDOT =     -15221.921533                 XDOT =       -4700.557511
     YDOT =      19665.529293  feet/sec       YDOT =        5941.829158  meter/sec
     ZDOT =      -3894.602046                 ZDOT =       -1209.761114
 
